STARLINK-4462           
1 53781U 22111J   26068.87155119  .00000577  00000+0  54373-4 0  9994
2 53781  53.2171 273.3043 0001529 100.3551 259.7613 15.08834955193722
LEMUR-2-AHMED-ASRAR     
1 60576U 24149DN  26068.73265438  .00013045  00000+0  79773-3 0  9992
2 60576  97.7021 152.9847 0001633  18.5035 341.6253 15.10376432 85541
